CCSDS_OMM_VERS = 2.0
CREATION_DATE  = 
ORIGINATOR     = 

OBJECT_NAME    = STARLINK-35825
OBJECT_ID      = 2025-268L
CENTER_NAME    = EARTH
REF_FRAME      = TEME
TIME_SYSTEM    = UTC
MEAN_ELEMENT_THEORY = SGP/SGP4

EPOCH          = 2025-12-20T04:00:00.999072
MEAN_MOTION    = 15.53655845
ECCENTRICITY   = .0001448
INCLINATION    = 43.0006
RA_OF_ASC_NODE = 77.7067
ARG_OF_PERICENTER = 271.1524
MEAN_ANOMALY   = 318.6359

EPHEMERIS_TYPE = 0
CLASSIFICATION_TYPE = U
NORAD_CAT_ID   = 66567
ELEMENT_SET_NO = 999
REV_AT_EPOCH   = 586
BSTAR          = .39317E-1
MEAN_MOTION_DOT = .2903395E-1
MEAN_MOTION_DDOT = 0

CCSDS_OMM_VERS = 2.0
CREATION_DATE  = 
ORIGINATOR     = 

OBJECT_NAME    = STARLINK-35803
OBJECT_ID      = 2025-268M
CENTER_NAME    = EARTH
REF_FRAME      = TEME
TIME_SYSTEM    = UTC
MEAN_ELEMENT_THEORY = SGP/SGP4

EPOCH          = 2025-12-19T13:06:40.927392
MEAN_MOTION    = 15.50770242
ECCENTRICITY   = .0000769
INCLINATION    = 43.0025
RA_OF_ASC_NODE = 81.3422
ARG_OF_PERICENTER = 350.7956
MEAN_ANOMALY   = 9.2890

EPHEMERIS_TYPE = 0
CLASSIFICATION_TYPE = U
NORAD_CAT_ID   = 66568
ELEMENT_SET_NO = 999
REV_AT_EPOCH   = 568
BSTAR          = .24142E-2
MEAN_MOTION_DOT = .144926E-2
MEAN_MOTION_DDOT = 0

CCSDS_OMM_VERS = 2.0
CREATION_DATE  = 
ORIGINATOR     = 

OBJECT_NAME    = STARLINK-35835
OBJECT_ID      = 2025-268N
CENTER_NAME    = EARTH
REF_FRAME      = TEME
TIME_SYSTEM    = UTC
MEAN_ELEMENT_THEORY = SGP/SGP4

EPOCH          = 2025-12-19T14:38:53.453760
MEAN_MOTION    = 15.51068809
ECCENTRICITY   = .000157
INCLINATION    = 43.0021
RA_OF_ASC_NODE = 80.9616
ARG_OF_PERICENTER = 180.5459
MEAN_ANOMALY   = 179.5399

EPHEMERIS_TYPE = 0
CLASSIFICATION_TYPE = U
NORAD_CAT_ID   = 66569
ELEMENT_SET_NO = 999
REV_AT_EPOCH   = 569
BSTAR          = .1158E-1
MEAN_MOTION_DOT = .75028E-2
MEAN_MOTION_DDOT = 0

CCSDS_OMM_VERS = 2.0
CREATION_DATE  = 
ORIGINATOR     = 

OBJECT_NAME    = STARLINK-35834
OBJECT_ID      = 2025-268P
CENTER_NAME    = EARTH
REF_FRAME      = TEME
TIME_SYSTEM    = UTC
MEAN_ELEMENT_THEORY = SGP/SGP4

EPOCH          = 2025-12-19T14:38:22.069824
MEAN_MOTION    = 15.51084950
ECCENTRICITY   = .0001238
INCLINATION    = 43.0034
RA_OF_ASC_NODE = 80.9577
ARG_OF_PERICENTER = 245.0703
MEAN_ANOMALY   = 115.0029

EPHEMERIS_TYPE = 0
CLASSIFICATION_TYPE = U
NORAD_CAT_ID   = 66570
ELEMENT_SET_NO = 999
REV_AT_EPOCH   = 569
BSTAR          = .72465E-2
MEAN_MOTION_DOT = .458871E-2
MEAN_MOTION_DDOT = 0

CCSDS_OMM_VERS = 2.0
CREATION_DATE  = 
ORIGINATOR     = 

OBJECT_NAME    = STARLINK-35836
OBJECT_ID      = 2025-268Q
CENTER_NAME    = EARTH
REF_FRAME      = TEME
TIME_SYSTEM    = UTC
MEAN_ELEMENT_THEORY = SGP/SGP4

EPOCH          = 2025-12-20T04:00:00.999072
MEAN_MOTION    = 15.53825771
ECCENTRICITY   = .0001505
INCLINATION    = 43.0008
RA_OF_ASC_NODE = 77.6852
ARG_OF_PERICENTER = 252.7051
MEAN_ANOMALY   = 344.7081

EPHEMERIS_TYPE = 0
CLASSIFICATION_TYPE = U
NORAD_CAT_ID   = 66571
ELEMENT_SET_NO = 999
REV_AT_EPOCH   = 586
BSTAR          = .36374E-1
MEAN_MOTION_DOT = .2738414E-1
MEAN_MOTION_DDOT = 0

CCSDS_OMM_VERS = 2.0
CREATION_DATE  = 
ORIGINATOR     = 

OBJECT_NAME    = STARLINK-35870
OBJECT_ID      = 2025-268R
CENTER_NAME    = EARTH
REF_FRAME      = TEME
TIME_SYSTEM    = UTC
MEAN_ELEMENT_THEORY = SGP/SGP4

EPOCH          = 2025-12-19T14:37:25.234176
MEAN_MOTION    = 15.50965919
ECCENTRICITY   = .0004838
INCLINATION    = 42.9991
RA_OF_ASC_NODE = 80.9528
ARG_OF_PERICENTER = 97.5171
MEAN_ANOMALY   = 262.6239

EPHEMERIS_TYPE = 0
CLASSIFICATION_TYPE = U
NORAD_CAT_ID   = 66572
ELEMENT_SET_NO = 999
REV_AT_EPOCH   = 569
BSTAR          = .15119E-2
MEAN_MOTION_DOT = .90663E-3
MEAN_MOTION_DDOT = 0

CCSDS_OMM_VERS = 2.0
CREATION_DATE  = 
ORIGINATOR     = 

OBJECT_NAME    = STARLINK-35650
OBJECT_ID      = 2025-268S
CENTER_NAME    = EARTH
REF_FRAME      = TEME
TIME_SYSTEM    = UTC
MEAN_ELEMENT_THEORY = SGP/SGP4

EPOCH          = 2025-12-19T14:36:55.904832
MEAN_MOTION    = 15.50859773
ECCENTRICITY   = .0003722
INCLINATION    = 43.0011
RA_OF_ASC_NODE = 80.9506
ARG_OF_PERICENTER = 102.7500
MEAN_ANOMALY   = 257.3776

EPHEMERIS_TYPE = 0
CLASSIFICATION_TYPE = U
NORAD_CAT_ID   = 66573
ELEMENT_SET_NO = 999
REV_AT_EPOCH   = 569
BSTAR          = .63018E-2
MEAN_MOTION_DOT = .392409E-2
MEAN_MOTION_DDOT = 0

CCSDS_OMM_VERS = 2.0
CREATION_DATE  = 
ORIGINATOR     = 

OBJECT_NAME    = STARLINK-35812
OBJECT_ID      = 2025-268T
CENTER_NAME    = EARTH
REF_FRAME      = TEME
TIME_SYSTEM    = UTC
MEAN_ELEMENT_THEORY = SGP/SGP4

EPOCH          = 2025-12-20T04:00:00.999072
MEAN_MOTION    = 15.53816988
ECCENTRICITY   = .0001566
INCLINATION    = 43.0012
RA_OF_ASC_NODE = 77.6709
ARG_OF_PERICENTER = 252.4659
MEAN_ANOMALY   = 350.7007

EPHEMERIS_TYPE = 0
CLASSIFICATION_TYPE = U
NORAD_CAT_ID   = 66574
ELEMENT_SET_NO = 999
REV_AT_EPOCH   = 586
BSTAR          = .36605E-1
MEAN_MOTION_DOT = .2757459E-1
MEAN_MOTION_DDOT = 0

CCSDS_OMM_VERS = 2.0
CREATION_DATE  = 
ORIGINATOR     = 

OBJECT_NAME    = STARLINK-35810
OBJECT_ID      = 2025-268U
CENTER_NAME    = EARTH
REF_FRAME      = TEME
TIME_SYSTEM    = UTC
MEAN_ELEMENT_THEORY = SGP/SGP4

EPOCH          = 2025-12-20T04:00:00.999072
MEAN_MOTION    = 15.53819983
ECCENTRICITY   = .0001654
INCLINATION    = 43.0013
RA_OF_ASC_NODE = 77.6664
ARG_OF_PERICENTER = 250.7792
MEAN_ANOMALY   = 354.3050

EPHEMERIS_TYPE = 0
CLASSIFICATION_TYPE = U
NORAD_CAT_ID   = 66575
ELEMENT_SET_NO = 999
REV_AT_EPOCH   = 586
BSTAR          = .36513E-1
MEAN_MOTION_DOT = .2749699E-1
MEAN_MOTION_DDOT = 0

CCSDS_OMM_VERS = 2.0
CREATION_DATE  = 
ORIGINATOR     = 

OBJECT_NAME    = STARLINK-35814
OBJECT_ID      = 2025-268V
CENTER_NAME    = EARTH
REF_FRAME      = TEME
TIME_SYSTEM    = UTC
MEAN_ELEMENT_THEORY = SGP/SGP4

EPOCH          = 2025-12-20T04:00:00.999072
MEAN_MOTION    = 15.53819573
ECCENTRICITY   = .0001514
INCLINATION    = 43.0013
RA_OF_ASC_NODE = 77.6611
ARG_OF_PERICENTER = 249.2271
MEAN_ANOMALY   = 357.7734

EPHEMERIS_TYPE = 0
CLASSIFICATION_TYPE = U
NORAD_CAT_ID   = 66576
ELEMENT_SET_NO = 999
REV_AT_EPOCH   = 586
BSTAR          = .3654E-1
MEAN_MOTION_DOT = .2752169E-1
MEAN_MOTION_DDOT = 0

CCSDS_OMM_VERS = 2.0
CREATION_DATE  = 
ORIGINATOR     = 

OBJECT_NAME    = STARLINK-35815
OBJECT_ID      = 2025-268W
CENTER_NAME    = EARTH
REF_FRAME      = TEME
TIME_SYSTEM    = UTC
MEAN_ELEMENT_THEORY = SGP/SGP4

EPOCH          = 2025-12-19T16:07:37.596288
MEAN_MOTION    = 15.50777469
ECCENTRICITY   = .00018642
INCLINATION    = 43.0013
RA_OF_ASC_NODE = 80.5656
ARG_OF_PERICENTER = 139.1198
MEAN_ANOMALY   = 220.9802

EPHEMERIS_TYPE = 0
CLASSIFICATION_TYPE = U
NORAD_CAT_ID   = 66577
ELEMENT_SET_NO = 999
REV_AT_EPOCH   = 570
BSTAR          = .10498154E-2
MEAN_MOTION_DOT = .62177E-3
MEAN_MOTION_DDOT = 0

CCSDS_OMM_VERS = 2.0
CREATION_DATE  = 
ORIGINATOR     = 

OBJECT_NAME    = STARLINK-35743
OBJECT_ID      = 2025-268X
CENTER_NAME    = EARTH
REF_FRAME      = TEME
TIME_SYSTEM    = UTC
MEAN_ELEMENT_THEORY = SGP/SGP4

EPOCH          = 2025-12-19T13:01:43.293216
MEAN_MOTION    = 15.50763067
ECCENTRICITY   = .0000651
INCLINATION    = 42.9979
RA_OF_ASC_NODE = 81.3160
ARG_OF_PERICENTER = 284.5171
MEAN_ANOMALY   = 75.5617

EPHEMERIS_TYPE = 0
CLASSIFICATION_TYPE = U
NORAD_CAT_ID   = 66578
ELEMENT_SET_NO = 999
REV_AT_EPOCH   = 568
BSTAR          = .24134E-2
MEAN_MOTION_DOT = .14484E-2
MEAN_MOTION_DDOT = 0

CCSDS_OMM_VERS = 2.0
CREATION_DATE  = 
ORIGINATOR     = 

OBJECT_NAME    = STARLINK-35868
OBJECT_ID      = 2025-268Y
CENTER_NAME    = EARTH
REF_FRAME      = TEME
TIME_SYSTEM    = UTC
MEAN_ELEMENT_THEORY = SGP/SGP4

EPOCH          = 2025-12-20T04:00:00.999072
MEAN_MOTION    = 15.53812494
ECCENTRICITY   = .0001663
INCLINATION    = 43.0013
RA_OF_ASC_NODE = 77.6467
ARG_OF_PERICENTER = 256.7113
MEAN_ANOMALY   = 356.0434

EPHEMERIS_TYPE = 0
CLASSIFICATION_TYPE = U
NORAD_CAT_ID   = 66579
ELEMENT_SET_NO = 999
REV_AT_EPOCH   = 586
BSTAR          = .36645E-1
MEAN_MOTION_DOT = .2760346E-1
MEAN_MOTION_DDOT = 0

CCSDS_OMM_VERS = 2.0
CREATION_DATE  = 
ORIGINATOR     = 

OBJECT_NAME    = STARLINK-35872
OBJECT_ID      = 2025-268Z
CENTER_NAME    = EARTH
REF_FRAME      = TEME
TIME_SYSTEM    = UTC
MEAN_ELEMENT_THEORY = SGP/SGP4

EPOCH          = 2025-12-19T14:33:26.953344
MEAN_MOTION    = 15.50873267
ECCENTRICITY   = .0002511
INCLINATION    = 42.9993
RA_OF_ASC_NODE = 80.9317
ARG_OF_PERICENTER = 162.1716
MEAN_ANOMALY   = 197.9233

EPHEMERIS_TYPE = 0
CLASSIFICATION_TYPE = U
NORAD_CAT_ID   = 66580
ELEMENT_SET_NO = 999
REV_AT_EPOCH   = 569
BSTAR          = .27444E-2
MEAN_MOTION_DOT = .165853E-2
MEAN_MOTION_DDOT = 0

CCSDS_OMM_VERS = 2.0
CREATION_DATE  = 
ORIGINATOR     = 

OBJECT_NAME    = STARLINK-35744
OBJECT_ID      = 2025-268AA
CENTER_NAME    = EARTH
REF_FRAME      = TEME
TIME_SYSTEM    = UTC
MEAN_ELEMENT_THEORY = SGP/SGP4

EPOCH          = 2025-12-19T14:32:57.535872
MEAN_MOTION    = 15.50868619
ECCENTRICITY   = .0002007
INCLINATION    = 42.9976
RA_OF_ASC_NODE = 80.9302
ARG_OF_PERICENTER = 149.3188
MEAN_ANOMALY   = 210.7790

EPHEMERIS_TYPE = 0
CLASSIFICATION_TYPE = U
NORAD_CAT_ID   = 66581
ELEMENT_SET_NO = 999
REV_AT_EPOCH   = 569
BSTAR          = .2953E-2
MEAN_MOTION_DOT = .178751E-2
MEAN_MOTION_DDOT = 0

